[{"addr:housenumber":"537"},{"addr:housenumber":"909"},{"addr:housenumber":"121"},{"addr:housenumber":"604"},{"addr:housenumber":"482/43G/11"},{"addr:housenumber":"94"},{"addr:housenumber":"2"},{"addr:housenumber":"641"},{"addr:housenumber":"14D"},{"addr:housenumber":"1362"},{"addr:housenumber":"37"},{"addr:housenumber":"71/2"},{"addr:housenumber":"564"},{"addr:housenumber":"1124"},{"addr:housenumber":"D2"},{"addr:housenumber":"ĐT 745"},{"addr:housenumber":"M4"},{"addr:housenumber":"636/39"},{"addr:housenumber":"567"},{"addr:housenumber":"1620-1622"},{"addr:housenumber":"315"},{"addr:housenumber":"285"},{"addr:housenumber":"491"},{"addr:housenumber":"A194"},{"addr:housenumber":"9/6"},{"addr:housenumber":"190"},{"addr:housenumber":"600/7"},{"addr:housenumber":"628"},{"addr:housenumber":"600"},{"addr:housenumber":"264"},{"addr:housenumber":"1/40"},{"addr:housenumber":"C1-C2"},{"addr:housenumber":"962"},{"addr:housenumber":"722"},{"addr:housenumber":"10"},{"addr:housenumber":"927"},{"addr:housenumber":"1622B"},{"addr:housenumber":"278"},{"addr:housenumber":"495"},{"addr:housenumber":"600/4/14"},{"addr:housenumber":"805"},{"addr:housenumber":"435"},{"addr:housenumber":"236-238"},{"addr:housenumber":"81-83"},{"addr:housenumber":"24-26"},{"addr:housenumber":"28 - 35"},{"addr:housenumber":"29"},{"addr:housenumber":"350"},{"addr:housenumber":"615A"},{"addr:housenumber":"204-206"},{"addr:housenumber":"887"},{"addr:housenumber":"124"},{"addr:housenumber":"59C"},{"addr:housenumber":"71/8"},{"addr:housenumber":"52-54"},{"addr:housenumber":"98/1T2"},{"addr:housenumber":"15A"},{"addr:housenumber":"600/4/15A"},{"addr:housenumber":"165"},{"addr:housenumber":"538/1"},{"addr:housenumber":"620/6"},{"addr:housenumber":"636/2"},{"addr:housenumber":"512/7-9"},{"addr:housenumber":"167"},{"addr:housenumber":"299"},{"addr:housenumber":"7/28"},{"addr:housenumber":"171D"},{"addr:housenumber":"01"},{"addr:housenumber":"28"},{"addr:housenumber":"23"},{"addr:housenumber":"Lô VA"},{"addr:housenumber":"634"},{"addr:housenumber":"02"},{"addr:housenumber":"64"},{"addr:housenumber":"22B"},{"addr:housenumber":"6"},{"addr:housenumber":"639"},{"addr:housenumber":"111B"},{"addr:housenumber":"620/15"},{"addr:housenumber":"512/17"},{"addr:housenumber":"245"},{"addr:housenumber":"649"},{"addr:housenumber":"377"},{"addr:housenumber":"98/1O"},{"addr:housenumber":"154-156"},{"addr:housenumber":"1622D"},{"addr:housenumber":"G6"},{"addr:housenumber":"300"},{"addr:housenumber":"512/8"},{"addr:housenumber":"313"},{"addr:housenumber":"1486"},{"addr:housenumber":"1C"},{"addr:housenumber":"107F"},{"addr:housenumber":"151"},{"addr:housenumber":"XX1"},{"addr:housenumber":"512/1/30"},{"addr:housenumber":"2/304"},{"addr:housenumber":"98/1U"},{"addr:housenumber":"91B"},{"addr:housenumber":"10A"},{"addr:housenumber":"256"},{"addr:housenumber":"600/4/6"},{"addr:housenumber":"86"},{"addr:housenumber":"161/85/30"},{"addr:housenumber":"512/1"},{"addr:housenumber":"45/9/13B"},{"addr:housenumber":"636/19"},{"addr:housenumber":"160"},{"addr:housenumber":"1060"},{"addr:housenumber":"137"},{"addr:housenumber":"512/1/2/6"},{"addr:housenumber":"526"},{"addr:housenumber":"88A"},{"addr:housenumber":"83"},{"addr:housenumber":"700"},{"addr:housenumber":"103"},{"addr:housenumber":"157"},{"addr:housenumber":"360B"},{"addr:housenumber":"112"},{"addr:housenumber":"636/4"},{"addr:housenumber":"98/1H"},{"addr:housenumber":"512/33-35"},{"addr:housenumber":"10 Đ"},{"addr:housenumber":"26"},{"addr:housenumber":"940-942"},{"addr:housenumber":"620/13"},{"addr:housenumber":"8"},{"addr:housenumber":"120/17"},{"addr:housenumber":"129"},{"addr:housenumber":"15c"},{"addr:housenumber":"1351"},{"addr:housenumber":"1056A"},{"addr:housenumber":"636/18"},{"addr:housenumber":"F100 - 18A/1"},{"addr:housenumber":"104"},{"addr:housenumber":"236/10"},{"addr:housenumber":"362"},{"addr:housenumber":"51/5B"},{"addr:housenumber":"32"},{"addr:housenumber":"636/3"},{"addr:housenumber":"636/29"},{"addr:housenumber":"DN10"},{"addr:housenumber":"51/5"},{"addr:housenumber":"69/4"},{"addr:housenumber":"74"},{"addr:housenumber":"148/11"},{"addr:housenumber":"512/1/36"},{"addr:housenumber":"512/16"},{"addr:housenumber":"274"},{"addr:housenumber":"4"},{"addr:housenumber":"9"},{"addr:housenumber":"401"},{"addr:housenumber":"636"},{"addr:housenumber":"39-41-43"},{"addr:housenumber":"140"},{"addr:housenumber":"37/21"},{"addr:housenumber":"636/30"},{"addr:housenumber":"132"},{"addr:housenumber":"1014/88/7"},{"addr:housenumber":"1249/3"},{"addr:housenumber":"422"},{"addr:housenumber":"61"},{"addr:housenumber":"820/25"},{"addr:housenumber":"600/4/22"},{"addr:housenumber":"512/1/34"},{"addr:housenumber":"98/1K"},{"addr:housenumber":"166/24"},{"addr:housenumber":"508/22"},{"addr:housenumber":"512/1/8-10"},{"addr:housenumber":"43"},{"addr:housenumber":"127T"},{"addr:housenumber":"766"},{"addr:housenumber":"620/9"},{"addr:housenumber":"30/4"},{"addr:housenumber":"28/7"},{"addr:housenumber":"1034/2/2"},{"addr:housenumber":"1231"},{"addr:housenumber":"193"},{"addr:housenumber":"636/14"},{"addr:housenumber":"153-155-157"},{"addr:housenumber":"98/1E"},{"addr:housenumber":"88"},{"addr:housenumber":"159"},{"addr:housenumber":"636/5"},{"addr:housenumber":"161B/2B-C-D"},{"addr:housenumber":"608"},{"addr:housenumber":"624"},{"addr:housenumber":"688"},{"addr:housenumber":"636/9-11"},{"addr:housenumber":"117-119"},{"addr:housenumber":"873"},{"addr:housenumber":"98/1V"},{"addr:housenumber":"2/7"},{"addr:housenumber":"437"},{"addr:housenumber":"600/4/15"},{"addr:housenumber":"128"},{"addr:housenumber":"22-36"},{"addr:housenumber":"58/6"},{"addr:housenumber":"1060/30"},{"addr:housenumber":"2/60A"},{"addr:housenumber":"D1"},{"addr:housenumber":"107"},{"addr:housenumber":"116-118"},{"addr:housenumber":"1034/2/1"},{"addr:housenumber":"400"},{"addr:housenumber":"1489/1"},{"addr:housenumber":"786"},{"addr:housenumber":"9-11"},{"addr:housenumber":"508/4"},{"addr:housenumber":"B11"},{"addr:housenumber":"78"},{"addr:housenumber":"31/17"},{"addr:housenumber":"205"},{"addr:housenumber":"518/11"},{"addr:housenumber":"485"},{"addr:housenumber":"19/16B"},{"addr:housenumber":"3"},{"addr:housenumber":"360A"},{"addr:housenumber":"199/25"},{"addr:housenumber":"518A"},{"addr:housenumber":"600/4/46"},{"addr:housenumber":"680"},{"addr:housenumber":"307-309"},{"addr:housenumber":"1026A"},{"addr:housenumber":"98/1L"},{"addr:housenumber":"518/23"},{"addr:housenumber":"2C"},{"addr:housenumber":"Lô B3"},{"addr:housenumber":"384"},{"addr:housenumber":"1624"},{"addr:housenumber":"C6/27"},{"addr:housenumber":"213"},{"addr:housenumber":"636/8"},{"addr:housenumber":"251"},{"addr:housenumber":"2/16"},{"addr:housenumber":"40C"},{"addr:housenumber":"Số 2A"},{"addr:housenumber":"302"},{"addr:housenumber":"548A"},{"addr:housenumber":"204"},{"addr:housenumber":"512/9A"},{"addr:housenumber":"369"},{"addr:housenumber":"421"},{"addr:housenumber":"1096"},{"addr:housenumber":"594"},{"addr:housenumber":"102"},{"addr:housenumber":"Lô B7"},{"addr:housenumber":"92"},{"addr:housenumber":"G9"},{"addr:housenumber":"23/13"},{"addr:housenumber":"220/9T3"},{"addr:housenumber":"59-61"},{"addr:housenumber":"149"},{"addr:housenumber":"15/48"},{"addr:housenumber":"785"},{"addr:housenumber":"150"},{"addr:housenumber":"331"},{"addr:housenumber":"B5"},{"addr:housenumber":"300A"},{"addr:housenumber":"65-67-69"},{"addr:housenumber":"152/A1"},{"addr:housenumber":"200"},{"addr:housenumber":"36-40"},{"addr:housenumber":"35/12"},{"addr:housenumber":"600/4/35"},{"addr:housenumber":"518/29"},{"addr:housenumber":"164"},{"addr:housenumber":"225"},{"addr:housenumber":"275"},{"addr:housenumber":"263 - 265"},{"addr:housenumber":"184"},{"addr:housenumber":"803"},{"addr:housenumber":"57"},{"addr:housenumber":"1618"},{"addr:housenumber":"636/31"},{"addr:housenumber":"72-74"},{"addr:housenumber":"19F"},{"addr:housenumber":"B10"},{"addr:housenumber":"425"},{"addr:housenumber":"600/4/32"},{"addr:housenumber":"10-12"},{"addr:housenumber":"620/23"},{"addr:housenumber":"71/10"},{"addr:housenumber":"600/4/37"},{"addr:housenumber":"339"},{"addr:housenumber":"114A"},{"addr:housenumber":"508/9"},{"addr:housenumber":"512/1/44"},{"addr:housenumber":"512/1/6"},{"addr:housenumber":"304A"},{"addr:housenumber":"514-516-518"},{"addr:housenumber":"975"},{"addr:housenumber":"123"},{"addr:housenumber":"44C/40"},{"addr:housenumber":"207B"},{"addr:housenumber":"332"},{"addr:housenumber":"36-38A13"},{"addr:housenumber":"636/23"},{"addr:housenumber":"12/67"},{"addr:housenumber":"532"},{"addr:housenumber":"1137"},{"addr:housenumber":"915"},{"addr:housenumber":"10N"},{"addr:housenumber":"1300"},{"addr:housenumber":"57A"},{"addr:housenumber":"600/4/5"},{"addr:housenumber":"161B/112"},{"addr:housenumber":"134"},{"addr:housenumber":"2/8"},{"addr:housenumber":"268"},{"addr:housenumber":"1206"},{"addr:housenumber":"146"},{"addr:housenumber":"508/6-8"},{"addr:housenumber":"93-95"},{"addr:housenumber":"600/5"},{"addr:housenumber":"240"},{"addr:housenumber":"A1/1"},{"addr:housenumber":"53/7B"},{"addr:housenumber":"1/1"},{"addr:housenumber":"66"},{"addr:housenumber":"45"},{"addr:housenumber":"Lot 4"},{"addr:housenumber":"8-15"},{"addr:housenumber":"338-340"},{"addr:housenumber":"B8"},{"addr:housenumber":"home C 3"},{"addr:housenumber":"370/1"},{"addr:housenumber":"43/1b"},{"addr:housenumber":"188"},{"addr:housenumber":"16T"},{"addr:housenumber":"69"},{"addr:housenumber":"136"},{"addr:housenumber":"429"},{"addr:housenumber":"130T"},{"addr:housenumber":"108-112"},{"addr:housenumber":"518/35"},{"addr:housenumber":"65A"},{"addr:housenumber":"600/4/9"},{"addr:housenumber":"141"},{"addr:housenumber":"508/3"},{"addr:housenumber":"489B/6"},{"addr:housenumber":"52"},{"addr:housenumber":"170"},{"addr:housenumber":"98/1N"},{"addr:housenumber":"389/34"},{"addr:housenumber":"70/1A"},{"addr:housenumber":"512/1/42"},{"addr:housenumber":"2 Ter"},{"addr:housenumber":"66-68"},{"addr:housenumber":"179A"},{"addr:housenumber":"512/1/23"},{"addr:housenumber":"A015"},{"addr:housenumber":"326A"},{"addr:housenumber":"747"},{"addr:housenumber":"148/13"},{"addr:housenumber":"237"},{"addr:housenumber":"363"},{"addr:housenumber":"673"},{"addr:housenumber":"518/5"},{"addr:housenumber":"C3"},{"addr:housenumber":"56"},{"addr:housenumber":"1927"},{"addr:housenumber":"54b/9"},{"addr:housenumber":"42A"},{"addr:housenumber":"186/6A"},{"addr:housenumber":"22"},{"addr:housenumber":"1-3"},{"addr:housenumber":"692B"},{"addr:housenumber":"512/29"},{"addr:housenumber":"512/1/24"},{"addr:housenumber":"98/12"},{"addr:housenumber":"63"},{"addr:housenumber":"620/25-27"},{"addr:housenumber":"T2-4"},{"addr:housenumber":"2287"},{"addr:housenumber":"Hẻm 148"},{"addr:housenumber":"341"},{"addr:housenumber":"209"},{"addr:housenumber":"552"},{"addr:housenumber":"824/27"},{"addr:housenumber":"B01"},{"addr:housenumber":"120-122"},{"addr:housenumber":"518/3"},{"addr:housenumber":"512/3"},{"addr:housenumber":"278-283"},{"addr:housenumber":"98/1O1"},{"addr:housenumber":"9T"},{"addr:housenumber":"720A"},{"addr:housenumber":"1370"},{"addr:housenumber":"48-50"},{"addr:housenumber":"14/7A"},{"addr:housenumber":"178/7R"},{"addr:housenumber":"58"},{"addr:housenumber":"14/3"},{"addr:housenumber":"600/4/8"},{"addr:housenumber":"18/18"},{"addr:housenumber":"134/4"},{"addr:housenumber":"430"},{"addr:housenumber":"411"},{"addr:housenumber":"600/4/36"},{"addr:housenumber":"312"},{"addr:housenumber":"101"},{"addr:housenumber":"176/14"},{"addr:housenumber":"13E"},{"addr:housenumber":"21A"},{"addr:housenumber":"53"},{"addr:housenumber":"63 A"},{"addr:housenumber":"124 Hồng Bàng"},{"addr:housenumber":"71/14"},{"addr:housenumber":"512/1/26"},{"addr:housenumber":"15/6"},{"addr:housenumber":"10 Lô A cư xá 307"},{"addr:housenumber":"244"},{"addr:housenumber":"527"},{"addr:housenumber":"30/6"},{"addr:housenumber":"148/5"},{"addr:housenumber":"208D"},{"addr:housenumber":"5"},{"addr:housenumber":"71/4"},{"addr:housenumber":"260"},{"addr:housenumber":"19A"},{"addr:housenumber":"31-33"},{"addr:housenumber":"239"},{"addr:housenumber":"K98"},{"addr:housenumber":"59"},{"addr:housenumber":"7B"},{"addr:housenumber":"508/24"},{"addr:housenumber":"360"},{"addr:housenumber":"5T"},{"addr:housenumber":"242/101"},{"addr:housenumber":"179-187"},{"addr:housenumber":"636/27"},{"addr:housenumber":"29A"},{"addr:housenumber":"512/19-21"},{"addr:housenumber":"600/4/44"},{"addr:housenumber":"508/2"},{"addr:housenumber":"626"},{"addr:housenumber":"1409"},{"addr:housenumber":"98/1A2"},{"addr:housenumber":"636/24"},{"addr:housenumber":"02-04"},{"addr:housenumber":"50"},{"addr:housenumber":"727"},{"addr:housenumber":"98/1A"},{"addr:housenumber":"203/2/36"},{"addr:housenumber":"198"},{"addr:housenumber":"110/55"},{"addr:housenumber":"B"},{"addr:housenumber":"96"},{"addr:housenumber":"1626"},{"addr:housenumber":"600/4/4"},{"addr:housenumber":"53/14"},{"addr:housenumber":"356/20"},{"addr:housenumber":"173"},{"addr:housenumber":"Lot W.29-30-31a"},{"addr:housenumber":"512/31"},{"addr:housenumber":"196"},{"addr:housenumber":"151A"},{"addr:housenumber":"113"},{"addr:housenumber":"271/12"},{"addr:housenumber":"1 - 23"},{"addr:housenumber":"459B"},{"addr:housenumber":"317"},{"addr:housenumber":"512/1/40"},{"addr:housenumber":"925"},{"addr:housenumber":"33-33A"},{"addr:housenumber":"1620A"},{"addr:housenumber":"B7/12BC1 Ấp 3"},{"addr:housenumber":"512/20"},{"addr:housenumber":"468/6A"},{"addr:housenumber":"512/1/16"},{"addr:housenumber":"98/1S"},{"addr:housenumber":"7/1"},{"addr:housenumber":"Lô E2a-7"},{"addr:housenumber":"218"},{"addr:housenumber":"367/1"},{"addr:housenumber":"1086"},{"addr:housenumber":"11"},{"addr:housenumber":"818/39d"},{"addr:housenumber":"125A"},{"addr:housenumber":"60"},{"addr:housenumber":"201A"},{"addr:housenumber":"110"},{"addr:housenumber":"156"},{"addr:housenumber":"4B"},{"addr:housenumber":"653"},{"addr:housenumber":"968"},{"addr:housenumber":"15"},{"addr:housenumber":"658"},{"addr:housenumber":"98/1J"},{"addr:housenumber":"600/4/33"},{"addr:housenumber":"73"},{"addr:housenumber":"343"},{"addr:housenumber":"349"},{"addr:housenumber":"148/17"},{"addr:housenumber":"368"},{"addr:housenumber":"215A"},{"addr:housenumber":"172C"},{"addr:housenumber":"34A"},{"addr:housenumber":"1312"},{"addr:housenumber":"A72"},{"addr:housenumber":"1489"},{"addr:housenumber":"48/50/27"},{"addr:housenumber":"632"},{"addr:housenumber":"512/11"},{"addr:housenumber":"240/110"},{"addr:housenumber":"60A"},{"addr:housenumber":"21"},{"addr:housenumber":"364"},{"addr:housenumber":"284"},{"addr:housenumber":"516-518"},{"addr:housenumber":"309B-311"},{"addr:housenumber":"98/1B"},{"addr:housenumber":"636/21"},{"addr:housenumber":"16/3 KP4"},{"addr:housenumber":"162"},{"addr:housenumber":"583"},{"addr:housenumber":"27-29"},{"addr:housenumber":"241/3"},{"addr:housenumber":"31/7"},{"addr:housenumber":"1526"},{"addr:housenumber":"549"},{"addr:housenumber":"138A"},{"addr:housenumber":"44/3"},{"addr:housenumber":"319"},{"addr:housenumber":"199A"},{"addr:housenumber":"133"},{"addr:housenumber":"3028"},{"addr:housenumber":"911"},{"addr:housenumber":"202"},{"addr:housenumber":"636/16"},{"addr:housenumber":"9-15"},{"addr:housenumber":"19"},{"addr:housenumber":"98/1T1"},{"addr:housenumber":"25"},{"addr:housenumber":"TX2"},{"addr:housenumber":"600/4/2"},{"addr:housenumber":"534"},{"addr:housenumber":"518/1"},{"addr:housenumber":"Nhà xe UIT"},{"addr:housenumber":"370"},{"addr:housenumber":"518/9"},{"addr:housenumber":"71/6"},{"addr:housenumber":"590/22"},{"addr:housenumber":"343D"},{"addr:housenumber":"606/70"},{"addr:housenumber":"259"},{"addr:housenumber":"593"},{"addr:housenumber":"6B"},{"addr:housenumber":"Hẻm 69"},{"addr:housenumber":"84A/5"},{"addr:housenumber":"30"},{"addr:housenumber":"633"},{"addr:housenumber":"A2"},{"addr:housenumber":"636/6"},{"addr:housenumber":"44C/25"},{"addr:housenumber":"508/10-12"},{"addr:housenumber":"518/39-41"},{"addr:housenumber":"1014/88/5"},{"addr:housenumber":"385"},{"addr:housenumber":"13A"},{"addr:housenumber":"105-107"},{"addr:housenumber":"6T"},{"addr:housenumber":"450"},{"addr:housenumber":"25 Bis"},{"addr:housenumber":"310"},{"addr:housenumber":"636/10"},{"addr:housenumber":"88/2"},{"addr:housenumber":"289"},{"addr:housenumber":"H2-H3"},{"addr:housenumber":"97"},{"addr:housenumber":"451"},{"addr:housenumber":"600/9"},{"addr:housenumber":"280"},{"addr:housenumber":"600/4/16"},{"addr:housenumber":"561"},{"addr:housenumber":"322"},{"addr:housenumber":"571"},{"addr:housenumber":"91"},{"addr:housenumber":"14-16"},{"addr:housenumber":"79A"},{"addr:housenumber":"79/22"},{"addr:housenumber":"508/13A"},{"addr:housenumber":"518/13"},{"addr:housenumber":"171"},{"addr:housenumber":"87"},{"addr:housenumber":"77-79"},{"addr:housenumber":"636/15"},{"addr:housenumber":"2673"},{"addr:housenumber":"1"},{"addr:housenumber":"23/1/8"},{"addr:housenumber":"316"},{"addr:housenumber":"974A"},{"addr:housenumber":"620/6A"},{"addr:housenumber":"8 A"},{"addr:housenumber":"600/4/39"},{"addr:housenumber":"85/122"},{"addr:housenumber":"702"},{"addr:housenumber":"1648"},{"addr:housenumber":"512/1/32"},{"addr:housenumber":"512/23"},{"addr:housenumber":"262"},{"addr:housenumber":"164-168"},{"addr:housenumber":"1646A"},{"addr:housenumber":"90"},{"addr:housenumber":"525/92"},{"addr:housenumber":"16"},{"addr:housenumber":"257"},{"addr:housenumber":"98/1R"},{"addr:housenumber":"845"},{"addr:housenumber":"276/68"},{"addr:housenumber":"39B"},{"addr:housenumber":"75"},{"addr:housenumber":"1026"},{"addr:housenumber":"497"},{"addr:housenumber":"13"},{"addr:housenumber":"48A"},{"addr:housenumber":"93"},{"addr:housenumber":"34"},{"addr:housenumber":"G3"},{"addr:housenumber":"5-7"},{"addr:housenumber":"115"},{"addr:housenumber":"182"},{"addr:housenumber":"18"},{"addr:housenumber":"518/33"},{"addr:housenumber":"728-730"},{"addr:housenumber":"2903"},{"addr:housenumber":"346"},{"addr:housenumber":"B3"},{"addr:housenumber":"3/C1"},{"addr:housenumber":"282"},{"addr:housenumber":"1230"},{"addr:housenumber":"636/37"},{"addr:housenumber":"100/1"},{"addr:housenumber":"266-268"},{"addr:housenumber":"46/11"},{"addr:housenumber":"512/1/28"},{"addr:housenumber":"117/2"},{"addr:housenumber":"442"},{"addr:housenumber":"2317"},{"addr:housenumber":"199"},{"addr:housenumber":"455"},{"addr:housenumber":"1469"},{"addr:housenumber":"31"},{"addr:housenumber":"114"},{"addr:housenumber":"600/4/20"},{"addr:housenumber":"201-203"},{"addr:housenumber":"09"},{"addr:housenumber":"668"},{"addr:housenumber":"82"},{"addr:housenumber":"43-45"},{"addr:housenumber":"309"},{"addr:housenumber":"98/1I"},{"addr:housenumber":"1014/88/9"},{"addr:housenumber":"561A"},{"addr:housenumber":"512/1/48"},{"addr:housenumber":"54"},{"addr:housenumber":"139"},{"addr:housenumber":"D9/13D"},{"addr:housenumber":"44C/60"},{"addr:housenumber":"82-84"},{"addr:housenumber":"772"},{"addr:housenumber":"241"},{"addr:housenumber":"44C/58"},{"addr:housenumber":"iV/4B"},{"addr:housenumber":"630"},{"addr:housenumber":"324"},{"addr:housenumber":"98/1P"},{"addr:housenumber":"4-6"},{"addr:housenumber":"638"},{"addr:housenumber":"1028"},{"addr:housenumber":"281"},{"addr:housenumber":"1034/1/10"},{"addr:housenumber":"600/4/38"},{"addr:housenumber":"399A"},{"addr:housenumber":"Lô I2"},{"addr:housenumber":"348"},{"addr:housenumber":"116"},{"addr:housenumber":"778"},{"addr:housenumber":"837"},{"addr:housenumber":"98/1A1"},{"addr:housenumber":"20 kp2"},{"addr:housenumber":"152"},{"addr:housenumber":"230"},{"addr:housenumber":"77-89"},{"addr:housenumber":"764"},{"addr:housenumber":"290"},{"addr:housenumber":"34/1A"},{"addr:housenumber":"448"},{"addr:housenumber":"620/29"},{"addr:housenumber":"120"},{"addr:housenumber":"287"},{"addr:housenumber":"35 BIS - 45"},{"addr:housenumber":"16/5"},{"addr:housenumber":"258"},{"addr:housenumber":"178/15B"},{"addr:housenumber":"89"},{"addr:housenumber":"522"},{"addr:housenumber":"512/1/2/2"},{"addr:housenumber":"1522"},{"addr:housenumber":"560"},{"addr:housenumber":"508/11"},{"addr:housenumber":"042B"},{"addr:housenumber":"72"},{"addr:housenumber":"224"},{"addr:housenumber":"85/95"},{"addr:housenumber":"29B"},{"addr:housenumber":"155"},{"addr:housenumber":"50-52"},{"addr:housenumber":"1122"},{"addr:housenumber":"M5"},{"addr:housenumber":"206"},{"addr:housenumber":"220/9T2"},{"addr:housenumber":"36B/41-47"},{"addr:housenumber":"Căn tin UIT (cũ)"},{"addr:housenumber":"359"},{"addr:housenumber":"740"},{"addr:housenumber":"14"},{"addr:housenumber":"967"},{"addr:housenumber":"477/61"},{"addr:housenumber":"158"},{"addr:housenumber":"828"},{"addr:housenumber":"600/4/1"},{"addr:housenumber":"59 - 61"},{"addr:housenumber":"189"},{"addr:housenumber":"408"},{"addr:housenumber":"98/1A4"},{"addr:housenumber":"231"},{"addr:housenumber":"934"},{"addr:housenumber":"221/1"},{"addr:housenumber":"98/1D"},{"addr:housenumber":"512/1/7-9"},{"addr:housenumber":"512/1/22"},{"addr:housenumber":"620/21"},{"addr:housenumber":"131"},{"addr:housenumber":"99"},{"addr:housenumber":"175"},{"addr:housenumber":"1472"},{"addr:housenumber":"3012"},{"addr:housenumber":"390"},{"addr:housenumber":"504"},{"addr:housenumber":"600/4/18"},{"addr:housenumber":"620/12A"},{"addr:housenumber":"618"},{"addr:housenumber":"518/19"},{"addr:housenumber":"233"},{"addr:housenumber":"120B"},{"addr:housenumber":"612"},{"addr:housenumber":"470"},{"addr:housenumber":"85-87"},{"addr:housenumber":"15676"},{"addr:housenumber":"379"},{"addr:housenumber":"636/13"},{"addr:housenumber":"A14/1"},{"addr:housenumber":"360D"},{"addr:housenumber":"600/4/31"},{"addr:housenumber":"29-31"},{"addr:housenumber":"270"},{"addr:housenumber":"185-187"},{"addr:housenumber":"65"},{"addr:housenumber":"148"},{"addr:housenumber":"338"},{"addr:housenumber":"119 - 119C"},{"addr:housenumber":"21-23"},{"addr:housenumber":"38 - 42"},{"addr:housenumber":"17-19-21"},{"addr:housenumber":"620"},{"addr:housenumber":"364-366"},{"addr:housenumber":"512/1/1"},{"addr:housenumber":"G4"},{"addr:housenumber":"47-57"},{"addr:housenumber":"35"},{"addr:housenumber":"Số 1"},{"addr:housenumber":"306-308"},{"addr:housenumber":"2/60B"},{"addr:housenumber":"220/9T1"},{"addr:housenumber":"512/5"},{"addr:housenumber":"252/16"},{"addr:housenumber":"512/41"},{"addr:housenumber":"86/4"},{"addr:housenumber":"A1"},{"addr:housenumber":"98/1Z"},{"addr:housenumber":"176"},{"addr:housenumber":"392/8/103"},{"addr:housenumber":"20-22"},{"addr:housenumber":"266"},{"addr:housenumber":"512/1/2"},{"addr:housenumber":"1034/3"},{"addr:housenumber":"518/37"},{"addr:housenumber":"32A"},{"addr:housenumber":"148/1"},{"addr:housenumber":"512/21A"},{"addr:housenumber":"512/1/25"},{"addr:housenumber":"148/7"},{"addr:housenumber":"C3 - C4"},{"addr:housenumber":"261"},{"addr:housenumber":"481"},{"addr:housenumber":"76"},{"addr:housenumber":"24/6K8"},{"addr:housenumber":"5B"},{"addr:housenumber":"158/90"},{"addr:housenumber":"1002"},{"addr:housenumber":"A5 p 123"},{"addr:housenumber":"B13"},{"addr:housenumber":"201"},{"addr:housenumber":"187"},{"addr:housenumber":"600/4/40"},{"addr:housenumber":"57/7"},{"addr:housenumber":"36"},{"addr:housenumber":"36A"},{"addr:housenumber":"Số 1/45"},{"addr:housenumber":"272"},{"addr:housenumber":"34-35"},{"addr:housenumber":"130"},{"addr:housenumber":"62"},{"addr:housenumber":"49"},{"addr:housenumber":"600/4/42"},{"addr:housenumber":"178/6"},{"addr:housenumber":"B4"},{"addr:housenumber":"774A"},{"addr:housenumber":"C2"},{"addr:housenumber":"7/9A"},{"addr:housenumber":"512/1/4"},{"addr:housenumber":"143"},{"addr:housenumber":"1034/1"},{"addr:housenumber":"40"},{"addr:housenumber":"151-155"},{"addr:housenumber":"429/9"},{"addr:housenumber":"508/15"},{"addr:housenumber":"1032"},{"addr:housenumber":"27K"},{"addr:housenumber":"2/2/63"},{"addr:housenumber":"19/5"},{"addr:housenumber":"43A"},{"addr:housenumber":"B12"},{"addr:housenumber":"2/2D"},{"addr:housenumber":"45 bis A"},{"addr:housenumber":"40A"},{"addr:housenumber":"512/1/2/4"},{"addr:housenumber":"28 Lô 1 Cư xá Vĩnh Hội"},{"addr:housenumber":"373/57"},{"addr:housenumber":"109A"},{"addr:housenumber":"276"},{"addr:housenumber":"600/4/24"},{"addr:housenumber":"Hẻm 83"},{"addr:housenumber":"372"},{"addr:housenumber":"296"},{"addr:housenumber":"416/1"},{"addr:housenumber":"610"},{"addr:housenumber":"98/1Y1"},{"addr:housenumber":"98/1C"},{"addr:housenumber":"12-14-16"},{"addr:housenumber":"321"},{"addr:housenumber":"33-35-37"},{"addr:housenumber":"297"},{"addr:housenumber":"3C"},{"addr:housenumber":"636/25"},{"addr:housenumber":"460"},{"addr:housenumber":"1192"},{"addr:housenumber":"98/1Y2"},{"addr:housenumber":"475"},{"addr:housenumber":"84"},{"addr:housenumber":"17A"},{"addr:housenumber":"128A"},{"addr:housenumber":"70"},{"addr:housenumber":"347"},{"addr:housenumber":"208"},{"addr:housenumber":"336"},{"addr:housenumber":"215"},{"addr:housenumber":"183A"},{"addr:housenumber":"518/21"},{"addr:housenumber":"79"},{"addr:housenumber":"60-60A"},{"addr:housenumber":"38"},{"addr:housenumber":"326"},{"addr:housenumber":"512/1/12"},{"addr:housenumber":"97A"},{"addr:housenumber":"100"},{"addr:housenumber":"273"},{"addr:housenumber":"93/6"},{"addr:housenumber":"B2"},{"addr:housenumber":"227"},{"addr:housenumber":"1475"},{"addr:housenumber":"11D"},{"addr:housenumber":"125"},{"addr:housenumber":"Lô E3"},{"addr:housenumber":"600/4/23"},{"addr:housenumber":"149/15"},{"addr:housenumber":"I2"},{"addr:housenumber":"Lot S12-16A"},{"addr:housenumber":"51"},{"addr:housenumber":"600/4/17A"},{"addr:housenumber":"600/3"},{"addr:housenumber":"928"},{"addr:housenumber":"636/22"},{"addr:housenumber":"600/9A"},{"addr:housenumber":"98/1X"},{"addr:housenumber":"80"},{"addr:housenumber":"67"},{"addr:housenumber":"620/17"},{"addr:housenumber":"16B"},{"addr:housenumber":"117-121"},{"addr:housenumber":"26/6"},{"addr:housenumber":"600/4/7"},{"addr:housenumber":"98/1G"},{"addr:housenumber":"283"},{"addr:housenumber":"47"},{"addr:housenumber":"518/15"},{"addr:housenumber":"242"},{"addr:housenumber":"870"},{"addr:housenumber":"44"},{"addr:housenumber":"512/1/38"},{"addr:housenumber":"229A"},{"addr:housenumber":"600/4/12"},{"addr:housenumber":"620/8"},{"addr:housenumber":"636/17"},{"addr:housenumber":"69/9"},{"addr:housenumber":"216"},{"addr:housenumber":"414"},{"addr:housenumber":"995"},{"addr:housenumber":"148/15"},{"addr:housenumber":"512/1/5"},{"addr:housenumber":"7 Lê Hồng Phong"},{"addr:housenumber":"612A"},{"addr:housenumber":"B7"},{"addr:housenumber":"163A"},{"addr:housenumber":"308"},{"addr:housenumber":"147"},{"addr:housenumber":"304"},{"addr:housenumber":"512/1/15"},{"addr:housenumber":"1310"},{"addr:housenumber":"The Panorama 11"},{"addr:housenumber":"98"},{"addr:housenumber":"512/13"},{"addr:housenumber":"219/20"},{"addr:housenumber":"271"},{"addr:housenumber":"508/13"},{"addr:housenumber":"505"},{"addr:housenumber":"330"},{"addr:housenumber":"B12A/23F3 LIÊN ÂP 1-2, 3 Ấp 2"},{"addr:housenumber":"508/20"},{"addr:housenumber":"195/29"},{"addr:housenumber":"462"},{"addr:housenumber":"Lô T2-1.2"},{"addr:housenumber":"24C"},{"addr:housenumber":"521"},{"addr:housenumber":"144"},{"addr:housenumber":"636/43"},{"addr:housenumber":"2290 Ấp Trung Mỹ"},{"addr:housenumber":"1115"},{"addr:housenumber":"391"},{"addr:housenumber":"122-124-126"},{"addr:housenumber":"93/76C"},{"addr:housenumber":"D10"},{"addr:housenumber":"8/49"},{"addr:housenumber":"183"},{"addr:housenumber":"387"},{"addr:housenumber":"685"},{"addr:housenumber":"508/7"},{"addr:housenumber":"98/1F"},{"addr:housenumber":"1622C"},{"addr:housenumber":"929"},{"addr:housenumber":"620/7"},{"addr:housenumber":"375"},{"addr:housenumber":"180"},{"addr:housenumber":"1079"},{"addr:housenumber":"18T"},{"addr:housenumber":"172"},{"addr:housenumber":"18D"},{"addr:housenumber":"03"},{"addr:housenumber":"6-8"},{"addr:housenumber":"122"},{"addr:housenumber":"508/18"},{"addr:housenumber":"222"},{"addr:housenumber":"512/1/14"},{"addr:housenumber":"111"},{"addr:housenumber":"291"},{"addr:housenumber":"419"},{"addr:housenumber":"E1"},{"addr:housenumber":"111D"},{"addr:housenumber":"518/7"},{"addr:housenumber":"669"},{"addr:housenumber":"709"},{"addr:housenumber":"145"},{"addr:housenumber":"614-616"},{"addr:housenumber":"306"},{"addr:housenumber":"Lô P3"},{"addr:housenumber":"512/1/19"},{"addr:housenumber":"198A"},{"addr:housenumber":"507"},{"addr:housenumber":"1171"},{"addr:housenumber":"220/9T"},{"addr:housenumber":"609-611"},{"addr:housenumber":"90Bis"},{"addr:housenumber":"119"},{"addr:housenumber":"636/14A"},{"addr:housenumber":"98/1Q"},{"addr:housenumber":"106"},{"addr:housenumber":"98/1M"},{"addr:housenumber":"108"},{"addr:housenumber":"126"},{"addr:housenumber":"A43"},{"addr:housenumber":"730"},{"addr:housenumber":"145/8"},{"addr:housenumber":"352"},{"addr:housenumber":"602"},{"addr:housenumber":"132T"},{"addr:housenumber":"251A"},{"addr:housenumber":"Lot 46"},{"addr:housenumber":"502"},{"addr:housenumber":"600/4/11"},{"addr:housenumber":"334"},{"addr:housenumber":"809"},{"addr:housenumber":"279"},{"addr:housenumber":"311K25"},{"addr:housenumber":"68"},{"addr:housenumber":"512/6"},{"addr:housenumber":"600/4/29"},{"addr:housenumber":"600/4/19"},{"addr:housenumber":"294"},{"addr:housenumber":"161"},{"addr:housenumber":"512/18"},{"addr:housenumber":"202-203"},{"addr:housenumber":"550"},{"addr:housenumber":"636/35"},{"addr:housenumber":"367"},{"addr:housenumber":"636/28"},{"addr:housenumber":"1408"},{"addr:housenumber":"46"},{"addr:housenumber":"642A"},{"addr:housenumber":"15/6C"},{"addr:housenumber":"512/27"},{"addr:housenumber":"512/10"},{"addr:housenumber":"117"},{"addr:housenumber":"235"},{"addr:housenumber":"125T"},{"addr:housenumber":"4B29"},{"addr:housenumber":"42"},{"addr:housenumber":"50 Lô V"},{"addr:housenumber":"243"},{"addr:housenumber":"70-72"},{"addr:housenumber":"314/16A"},{"addr:housenumber":"749"},{"addr:housenumber":"512/1/11"},{"addr:housenumber":"3A"},{"addr:housenumber":"55"},{"addr:housenumber":"127"},{"addr:housenumber":"81"},{"addr:housenumber":"514"},{"addr:housenumber":"54 - 56"},{"addr:housenumber":"358"},{"addr:housenumber":"620/4"},{"addr:housenumber":"Lô T2-1.3"},{"addr:housenumber":"600/4/34"},{"addr:housenumber":"1034"},{"addr:housenumber":"98/1A5"},{"addr:housenumber":"368B"},{"addr:housenumber":"139B"},{"addr:housenumber":"620/11"},{"addr:housenumber":"98/1W"},{"addr:housenumber":"1034/1/2"},{"addr:housenumber":"518/27"},{"addr:housenumber":"98/1E1"},{"addr:housenumber":"508/14"},{"addr:housenumber":"620/2"},{"addr:housenumber":"636/26"},{"addr:housenumber":"85/22"},{"addr:housenumber":"413"},{"addr:housenumber":"354-356"},{"addr:housenumber":"24"},{"addr:housenumber":"98/1T"},{"addr:housenumber":"G11"},{"addr:housenumber":"15A2"},{"addr:housenumber":"318"},{"addr:housenumber":"98/1K1"},{"addr:housenumber":"524"},{"addr:housenumber":"41"},{"addr:housenumber":"97/81"},{"addr:housenumber":"600/4/28"},{"addr:housenumber":"ĐC:A.IV-1B+2A"},{"addr:housenumber":"167A"},{"addr:housenumber":"479"},{"addr:housenumber":"220/9/43"},{"addr:housenumber":"148/9"},{"addr:housenumber":"137-139"},{"addr:housenumber":"518/17"},{"addr:housenumber":"46-48-50"},{"addr:housenumber":"518/25"},{"addr:housenumber":"71/12"},{"addr:housenumber":"576-578"},{"addr:housenumber":"314"},{"addr:housenumber":"397"},{"addr:housenumber":"250"},{"addr:housenumber":"622"},{"addr:housenumber":"B9"},{"addr:housenumber":"159 - 161 - 163"},{"addr:housenumber":"Trạm Y tế xã Vĩnh Lộc A"},{"addr:housenumber":"657"},{"addr:housenumber":"95"},{"addr:housenumber":"138-142"},{"addr:housenumber":"228"},{"addr:housenumber":"246"},{"addr:housenumber":"600/4/21"},{"addr:housenumber":"144/12"},{"addr:housenumber":"506"},{"addr:housenumber":"512/1/3"},{"addr:housenumber":"600/4/13"},{"addr:housenumber":"181"},{"addr:housenumber":"28-30"},{"addr:housenumber":"63A"},{"addr:housenumber":"133G"},{"addr:housenumber":"620/19"},{"addr:housenumber":"948"},{"addr:housenumber":"8A"},{"addr:housenumber":"229"},{"addr:housenumber":"571-573"},{"addr:housenumber":"416/2"},{"addr:housenumber":"3F"},{"addr:housenumber":"C1"},{"addr:housenumber":"512/15"},{"addr:housenumber":"138"},{"addr:housenumber":"180-192"},{"addr:housenumber":"444"},{"addr:housenumber":"B1"},{"addr:housenumber":"636/33"},{"addr:housenumber":"600/4/27"},{"addr:housenumber":"1622A"},{"addr:housenumber":"2A-2B"},{"addr:housenumber":"12"},{"addr:housenumber":"168"},{"addr:housenumber":"7"},{"addr:housenumber":"449"},{"addr:housenumber":"328"},{"addr:housenumber":"512/37"},{"addr:housenumber":"636/20"},{"addr:housenumber":"Hẻm 688/57"},{"addr:housenumber":"525"},{"addr:housenumber":"360E"},{"addr:housenumber":"177"},{"addr:housenumber":"41-43"},{"addr:housenumber":"36 - 46"},{"addr:housenumber":"1168B"},{"addr:housenumber":"394"},{"addr:housenumber":"1030"},{"addr:housenumber":"44C/59"},{"addr:housenumber":"234"},{"addr:housenumber":"Hẻm 280/29"},{"addr:housenumber":"512/1/21"},{"addr:housenumber":"211/53"},{"addr:housenumber":"Lô T2"},{"addr:housenumber":"17"},{"addr:housenumber":"98/1A3"},{"addr:housenumber":"621"},{"addr:housenumber":"396"},{"addr:housenumber":"606"},{"addr:housenumber":"512/1/13"},{"addr:housenumber":"512/22"},{"addr:housenumber":"3T"},{"addr:housenumber":"520"},{"addr:housenumber":"556"},{"addr:housenumber":"600/4/25"},{"addr:housenumber":"6C-8C-12C"},{"addr:housenumber":"333"},{"addr:housenumber":"512/43"},{"addr:housenumber":"360G"},{"addr:housenumber":"148/3"},{"addr:housenumber":"135"},{"addr:housenumber":"98/1A4A"},{"addr:housenumber":"18A"},{"addr:housenumber":"109"},{"addr:housenumber":"39"},{"addr:housenumber":"512/4"},{"addr:housenumber":"237/4/66"},{"addr:housenumber":"20"},{"addr:housenumber":"1A"},{"addr:housenumber":"679"},{"addr:housenumber":"512/1/20"},{"addr:housenumber":"96/9"},{"addr:housenumber":"474"},{"addr:housenumber":"600/4/30"},{"addr:housenumber":"600/4/17"},{"addr:housenumber":"512/39"},{"addr:housenumber":"94-96"},{"addr:housenumber":"555B"},{"addr:housenumber":"512/12"},{"addr:housenumber":"220"},{"addr:housenumber":"194"},{"addr:housenumber":"236A/6"},{"addr:housenumber":"391A"},{"addr:housenumber":"33"},{"addr:housenumber":"136A"},{"addr:housenumber":"Võ Văn Kiệt, Phường Cô Giang"},{"addr:housenumber":"166"},{"addr:housenumber":"508/5"},{"addr:housenumber":"620/1"},{"addr:housenumber":"153"},{"addr:housenumber":"27"},{"addr:housenumber":"1014/88/11"},{"addr:housenumber":"178"},{"addr:housenumber":"902"},{"addr:housenumber":"688/57/44"},{"addr:housenumber":"1018"},{"addr:housenumber":"512/25"},{"addr:housenumber":"179"},{"addr:housenumber":"105"},{"addr:housenumber":"600/4/26"},{"addr:housenumber":"48/45"},{"addr:housenumber":"600/1"},{"addr:housenumber":"212"},{"addr:housenumber":"97B"},{"addr:housenumber":"255"},{"addr:housenumber":"77"},{"addr:housenumber":"1055/3D"},{"addr:housenumber":"600/4/3"},{"addr:housenumber":"636/12"},{"addr:housenumber":"92B/20"},{"addr:housenumber":"249"},{"addr:housenumber":"Lô R6"},{"addr:housenumber":"600/4/10"},{"addr:housenumber":"TX1"},{"addr:housenumber":"48"},{"addr:housenumber":"1135"},{"addr:housenumber":"620/3"},{"addr:housenumber":"1034/2"},{"addr:housenumber":"186"},{"addr:housenumber":"504/58C"},{"addr:housenumber":"121/20"},{"addr:housenumber":"236Bis"},{"addr:housenumber":"512/1/17"},{"addr:housenumber":"2-4-6"},{"addr:housenumber":"373/95"},{"addr:housenumber":"518/31"},{"addr:housenumber":"512/1/18"},{"addr:housenumber":"71"},{"addr:housenumber":"620/5"},{"addr:housenumber":"44C/20"}]